{"type": "FeatureCollection", "features": [{"type": "Feature", "properties": {"norad_id": 26766, "name": "INTELSAT 10 (IS-10)", "group": "intelsat", "lat": 1.9373200081089608, "lon": 73.79203957284669, "alt_km": 36152.50005833723, "timestamp": "2025-12-24T16:52:41.168347+00:00", "meta": {"OBJECT_NAME": "INTELSAT 10 (IS-10)", "OBJECT_ID": "2001-019A", "EPOCH": "2025-12-23T20:29:28.496256", "MEAN_MOTION": 0.9907274, "ECCENTRICITY": 0.00078795, "INCLINATION": 8.6541, "RA_OF_ASC_NODE": 61.0445, "ARG_OF_PERICENTER": 229.3993, "MEAN_ANOMALY": 200.4709, "EPHEMERIS_TYPE": 0, "CLASSIFICATION_TYPE": "U", "NORAD_CAT_ID": 26766, "ELEMENT_SET_NO": 999, "REV_AT_EPOCH": 4384, "BSTAR": 0, "MEAN_MOTION_DOT": -1.1e-07, "MEAN_MOTION_DDOT": 0}, "tle": {"line1": "1 26766U 01019A   25357.85380204 -.00000011  00000+0  00000+0 0  9991", "line2": "2 26766   8.6541  61.0445 0007879 229.3993 200.4709  0.99072740 43840"}}, "geometry": {"type": "Point", "coordinates": [73.79203957284669, 1.9373200081089608]}}, {"type": "Feature", "properties": {"norad_id": 26900, "name": "INTELSAT 902 (IS-902)", "group": "intelsat", "lat": -3.8562658923724493, "lon": -63.65933698236549, "alt_km": 35771.77070577848, "timestamp": "2025-12-24T16:52:41.168376+00:00", "meta": {"OBJECT_NAME": "INTELSAT 902 (IS-902)", "OBJECT_ID": "2001-039A", "EPOCH": "2025-12-15T13:09:02.081664", "MEAN_MOTION": 1.0027087, "ECCENTRICITY": 0.00045028, "INCLINATION": 5.6536, "RA_OF_ASC_NODE": 74.0372, "ARG_OF_PERICENTER": 189.6359, "MEAN_ANOMALY": 327.9329, "EPHEMERIS_TYPE": 0, "CLASSIFICATION_TYPE": "U", "NORAD_CAT_ID": 26900, "ELEMENT_SET_NO": 999, "REV_AT_EPOCH": 8885, "BSTAR": 0, "MEAN_MOTION_DOT": -2.65e-06, "MEAN_MOTION_DDOT": 0}, "tle": {"line1": "1 26900U 01039A   25349.54794076 -.00000265  00000+0  00000+0 0  9997", "line2": "2 26900   5.6536  74.0372 0004502 189.6359 327.9329  1.00270870 88858"}}, "geometry": {"type": "Point", "coordinates": [-63.65933698236549, -3.8562658923724493]}}, {"type": "Feature", "properties": {"norad_id": 27380, "name": "INTELSAT 904 (IS-904)", "group": "intelsat", "lat": -5.836703752258537, "lon": -44.987889265504066, "alt_km": 35778.53705327351, "timestamp": "2025-12-24T16:52:41.168394+00:00", "meta": {"OBJECT_NAME": "INTELSAT 904 (IS-904)", "OBJECT_ID": "2002-007A", "EPOCH": "2025-12-23T23:15:16.271712", "MEAN_MOTION": 1.00273356, "ECCENTRICITY": 0.00018804, "INCLINATION": 6.4809, "RA_OF_ASC_NODE": 71.3034, "ARG_OF_PERICENTER": 245.293, "MEAN_ANOMALY": 93.4817, "EPHEMERIS_TYPE": 0, "CLASSIFICATION_TYPE": "U", "NORAD_CAT_ID": 27380, "ELEMENT_SET_NO": 999, "REV_AT_EPOCH": 5000, "BSTAR": 0, "MEAN_MOTION_DOT": -2.07e-06, "MEAN_MOTION_DDOT": 0}, "tle": {"line1": "1 27380U 02007A   25357.96893833 -.00000207  00000+0  00000+0 0  9998", "line2": "2 27380   6.4809  71.3034 0001880 245.2930  93.4817  1.00273356 50003"}}, "geometry": {"type": "Point", "coordinates": [-44.987889265504066, -5.836703752258537]}}, {"type": "Feature", "properties": {"norad_id": 27426, "name": "DIRECTV 5 (TEMPO 1)", "group": "intelsat", "lat": 1.5756406328355756, "lon": -123.44316363985268, "alt_km": 35775.93783302635, "timestamp": "2025-12-24T16:52:41.168409+00:00", "meta": {"OBJECT_NAME": "DIRECTV 5 (TEMPO 1)", "OBJECT_ID": "2002-023A", "EPOCH": "2025-12-24T05:01:47.604864", "MEAN_MOTION": 1.00271646, "ECCENTRICITY": 0.00032791, "INCLINATION": 4.4296, "RA_OF_ASC_NODE": 77.5183, "ARG_OF_PERICENTER": 203.0994, "MEAN_ANOMALY": 137.6999, "EPHEMERIS_TYPE": 0, "CLASSIFICATION_TYPE": "U", "NORAD_CAT_ID": 27426, "ELEMENT_SET_NO": 999, "REV_AT_EPOCH": 8636, "BSTAR": 0, "MEAN_MOTION_DOT": -3.8e-07, "MEAN_MOTION_DDOT": 0}, "tle": {"line1": "1 27426U 02023A   25358.20957876 -.00000038  00000+0  00000+0 0  9995", "line2": "2 27426   4.4296  77.5183 0003279 203.0994 137.6999  1.00271646 86361"}}, "geometry": {"type": "Point", "coordinates": [-123.44316363985268, 1.5756406328355756]}}, {"type": "Feature", "properties": {"norad_id": 27438, "name": "INTELSAT 905 (IS-905)", "group": "intelsat", "lat": 4.259349471716046, "lon": -150.39814243207127, "alt_km": 35780.80929703527, "timestamp": "2025-12-24T16:52:41.168422+00:00", "meta": {"OBJECT_NAME": "INTELSAT 905 (IS-905)", "OBJECT_ID": "2002-027A", "EPOCH": "2025-12-23T05:41:27.377952", "MEAN_MOTION": 1.00273243, "ECCENTRICITY": 0.00027491, "INCLINATION": 6.3102, "RA_OF_ASC_NODE": 71.9349, "ARG_OF_PERICENTER": 206.5226, "MEAN_ANOMALY": 121.7385, "EPHEMERIS_TYPE": 0, "CLASSIFICATION_TYPE": "U", "NORAD_CAT_ID": 27438, "ELEMENT_SET_NO": 999, "REV_AT_EPOCH": 4959, "BSTAR": 0, "MEAN_MOTION_DOT": 1.12e-06, "MEAN_MOTION_DDOT": 0}, "tle": {"line1": "1 27438U 02027A   25357.23712243  .00000112  00000+0  00000+0 0  9993", "line2": "2 27438   6.3102  71.9349 0002749 206.5226 121.7385  1.00273243 49592"}}, "geometry": {"type": "Point", "coordinates": [-150.39814243207127, 4.259349471716046]}}, {"type": "Feature", "properties": {"norad_id": 27445, "name": "GALAXY 3C (G-3C)", "group": "intelsat", "lat": 0.47387108748805873, "lon": -108.18666297010934, "alt_km": 35785.939430292354, "timestamp": "2025-12-24T16:52:41.168435+00:00", "meta": {"OBJECT_NAME": "GALAXY 3C (G-3C)", "OBJECT_ID": "2002-030A", "EPOCH": "2025-12-24T05:48:02.087712", "MEAN_MOTION": 1.00271386, "ECCENTRICITY": 0.00010927, "INCLINATION": 3.2908, "RA_OF_ASC_NODE": 80.3833, "ARG_OF_PERICENTER": 84.2679, "MEAN_ANOMALY": 280.5213, "EPHEMERIS_TYPE": 0, "CLASSIFICATION_TYPE": "U", "NORAD_CAT_ID": 27445, "ELEMENT_SET_NO": 999, "REV_AT_EPOCH": 4474, "BSTAR": 0, "MEAN_MOTION_DOT": -1.33e-06, "MEAN_MOTION_DDOT": 0}, "tle": {"line1": "1 27445U 02030A   25358.24169083 -.00000133  00000+0  00000+0 0  9999", "line2": "2 27445   3.2908  80.3833 0001092  84.2679 280.5213  1.00271386 44747"}}, "geometry": {"type": "Point", "coordinates": [-108.18666297010934, 0.47387108748805873]}}, {"type": "Feature", "properties": {"norad_id": 27513, "name": "INTELSAT 906 (IS-906)", "group": "intelsat", "lat": -2.189167363269083, "lon": 50.93935376433927, "alt_km": 35804.27739487232, "timestamp": "2025-12-24T16:52:41.168449+00:00", "meta": {"OBJECT_NAME": "INTELSAT 906 (IS-906)", "OBJECT_ID": "2002-041A", "EPOCH": "2025-12-23T18:34:28.015104", "MEAN_MOTION": 1.00273398, "ECCENTRICITY": 0.00062905, "INCLINATION": 5.3577, "RA_OF_ASC_NODE": 75.1001, "ARG_OF_PERICENTER": 202.0184, "MEAN_ANOMALY": 158.2022, "EPHEMERIS_TYPE": 0, "CLASSIFICATION_TYPE": "U", "NORAD_CAT_ID": 27513, "ELEMENT_SET_NO": 999, "REV_AT_EPOCH": 8527, "BSTAR": 0, "MEAN_MOTION_DOT": 3.1e-07, "MEAN_MOTION_DDOT": 0}, "tle": {"line1": "1 27513U 02041A   25357.77393536  .00000031  00000+0  00000+0 0  9992", "line2": "2 27513   5.3577  75.1001 0006290 202.0184 158.2022  1.00273398 85270"}}, "geometry": {"type": "Point", "coordinates": [50.93935376433927, -2.189167363269083]}}, {"type": "Feature", "properties": {"norad_id": 27954, "name": "GALAXY 13 (HORIZONS-1)", "group": "intelsat", "lat": 0.906462003456862, "lon": -163.41358781631396, "alt_km": 35783.190914102655, "timestamp": "2025-12-24T16:52:41.168462+00:00", "meta": {"OBJECT_NAME": "GALAXY 13 (HORIZONS-1)", "OBJECT_ID": "2003-044A", "EPOCH": "2025-12-24T04:18:50.176224", "MEAN_MOTION": 1.00271453, "ECCENTRICITY": 0.00023344, "INCLINATION": 0.9663, "RA_OF_ASC_NODE": 86.3197, "ARG_OF_PERICENTER": 183.7359, "MEAN_ANOMALY": 97.5809, "EPHEMERIS_TYPE": 0, "CLASSIFICATION_TYPE": "U", "NORAD_CAT_ID": 27954, "ELEMENT_SET_NO": 999, "REV_AT_EPOCH": 4481, "BSTAR": 0, "MEAN_MOTION_DOT": 1.53e-06, "MEAN_MOTION_DDOT": 0}, "tle": {"line1": "1 27954U 03044A   25358.17974741  .00000153  00000+0  00000+0 0  9998", "line2": "2 27954   0.9663  86.3197 0002334 183.7359  97.5809  1.00271453 44813"}}, "geometry": {"type": "Point", "coordinates": [-163.41358781631396, 0.906462003456862]}}, {"type": "Feature", "properties": {"norad_id": 28358, "name": "INTELSAT 10-02", "group": "intelsat", "lat": -0.025158112526566093, "lon": -14.325904873886774, "alt_km": 35782.9260980258, "timestamp": "2025-12-24T16:52:41.168476+00:00", "meta": {"OBJECT_NAME": "INTELSAT 10-02", "OBJECT_ID": "2004-022A", "EPOCH": "2025-12-24T02:38:38.492736", "MEAN_MOTION": 1.00266508, "ECCENTRICITY": 0.00012757, "INCLINATION": 0.0148, "RA_OF_ASC_NODE": 53.5319, "ARG_OF_PERICENTER": 261.4537, "MEAN_ANOMALY": 176.6028, "EPHEMERIS_TYPE": 0, "CLASSIFICATION_TYPE": "U", "NORAD_CAT_ID": 28358, "ELEMENT_SET_NO": 999, "REV_AT_EPOCH": 7880, "BSTAR": 0, "MEAN_MOTION_DOT": 9e-08, "MEAN_MOTION_DDOT": 0}, "tle": {"line1": "1 28358U 04022A   25358.11016774  .00000009  00000+0  00000+0 0  9991", "line2": "2 28358   0.0148  53.5319 0001275 261.4537 176.6028  1.00266508 78801"}}, "geometry": {"type": "Point", "coordinates": [-14.325904873886774, -0.025158112526566093]}}, {"type": "Feature", "properties": {"norad_id": 28626, "name": "XM-3 (RHYTHM)", "group": "intelsat", "lat": -0.11386387306259468, "lon": 44.076835180242526, "alt_km": 36154.62180487927, "timestamp": "2025-12-24T16:52:41.168489+00:00", "meta": {"OBJECT_NAME": "XM-3 (RHYTHM)", "OBJECT_ID": "2005-008A", "EPOCH": "2025-12-24T04:49:30.196416", "MEAN_MOTION": 0.98950005, "ECCENTRICITY": 0.0002119, "INCLINATION": 0.2024, "RA_OF_ASC_NODE": 82.1628, "ARG_OF_PERICENTER": 274.8178, "MEAN_ANOMALY": 228.1838, "EPHEMERIS_TYPE": 0, "CLASSIFICATION_TYPE": "U", "NORAD_CAT_ID": 28626, "ELEMENT_SET_NO": 999, "REV_AT_EPOCH": 4086, "BSTAR": 0, "MEAN_MOTION_DOT": 9.9e-07, "MEAN_MOTION_DDOT": 0}, "tle": {"line1": "1 28626U 05008A   25358.20104394  .00000099  00000+0  00000+0 0  9999", "line2": "2 28626   0.2024  82.1628 0002119 274.8178 228.1838  0.98950005 40867"}}, "geometry": {"type": "Point", "coordinates": [44.076835180242526, -0.11386387306259468]}}]}